{
  "type": "FeatureCollection",
  "features": [
    {
      "type": "Feature",
      "properties": {
        "norad_id": 34540,
        "name": "IRIDIUM 33 DEB",
        "group": "iridium-33-debris",
        "lat": -21.008279781951213,
        "lon": -51.50838518073774,
        "alt_km": 660.305014381006,
        "timestamp": "2025-12-07T16:44:04.297511+00:00",
        "meta_object_name": "IRIDIUM 33 DEB",
        "meta_object_id": "1997-051JH",
        "meta_epoch": "2025-12-06T21:23:37.747968",
        "meta_mean_motion": 14.75129785,
        "meta_eccentricity": 0.00154132,
        "meta_inclination": 86.3105,
        "meta_ra_of_asc_node": 310.2798,
        "meta_arg_of_pericenter": 180.3432,
        "meta_mean_anomaly": 201.9218,
        "meta_ephemeris_type": 0,
        "meta_classification_type": "U",
        "meta_norad_cat_id": 34540,
        "meta_element_set_no": 999,
        "meta_rev_at_epoch": 88935,
        "meta_bstar": 0.0025270444,
        "meta_mean_motion_dot": 0.00017126,
        "meta_mean_motion_ddot": 0,
        "tle_line1": "1 34540U 97051JH  25340.89140912  .00017126  00000+0  25270-2 0  9990",
        "tle_line2": "2 34540  86.3105 310.2798 0015413 180.3432 201.9218 14.75129785889351"
      },
      "geometry": {
        "type": "Point",
        "coordinates": [
          -51.50838518073774,
          -21.008279781951213
        ]
      }
    },
    {
      "type": "Feature",
      "properties": {
        "norad_id": 34648,
        "name": "IRIDIUM 33 DEB",
        "group": "iridium-33-debris",
        "lat": -21.5122673521578,
        "lon": 105.40787319789409,
        "alt_km": 910.7608963955718,
        "timestamp": "2025-12-07T16:44:04.297521+00:00",
        "meta_object_name": "IRIDIUM 33 DEB",
        "meta_object_id": "1997-051JZ",
        "meta_epoch": "2025-12-06T19:20:47.044320",
        "meta_mean_motion": 14.11197938,
        "meta_eccentricity": 0.01849632,
        "meta_inclination": 86.3922,
        "meta_ra_of_asc_node": 284.3423,
        "meta_arg_of_pericenter": 317.3129,
        "meta_mean_anomaly": 41.3805,
        "meta_ephemeris_type": 0,
        "meta_classification_type": "U",
        "meta_norad_cat_id": 34648,
        "meta_element_set_no": 999,
        "meta_rev_at_epoch": 84877,
        "meta_bstar": 0.013223828,
        "meta_mean_motion_dot": 0.00028092,
        "meta_mean_motion_ddot": 0,
        "tle_line1": "1 34648U 97051JZ  25340.80610005  .00028092  00000+0  13224-1 0  9994",
        "tle_line2": "2 34648  86.3922 284.3423 0184963 317.3129  41.3805 14.11197938848779"
      },
      "geometry": {
        "type": "Point",
        "coordinates": [
          105.40787319789409,
          -21.5122673521578
        ]
      }
    },
    {
      "type": "Feature",
      "properties": {
        "norad_id": 34651,
        "name": "IRIDIUM 33 DEB",
        "group": "iridium-33-debris",
        "lat": 1.3656348272449812,
        "lon": 142.81033660687643,
        "alt_km": 888.3566572553136,
        "timestamp": "2025-12-07T16:44:04.297531+00:00",
        "meta_object_name": "IRIDIUM 33 DEB",
        "meta_object_id": "1997-051KC",
        "meta_epoch": "2025-12-06T22:11:54.879936",
        "meta_mean_motion": 14.25664536,
        "meta_eccentricity": 0.01419317,
        "meta_inclination": 86.2838,
        "meta_ra_of_asc_node": 143.05,
        "meta_arg_of_pericenter": 222.4049,
        "meta_mean_anomaly": 136.6106,
        "meta_ephemeris_type": 0,
        "meta_classification_type": "U",
        "meta_norad_cat_id": 34651,
        "meta_element_set_no": 999,
        "meta_rev_at_epoch": 85813,
        "meta_bstar": 0.004978077,
        "meta_mean_motion_dot": 0.00013145,
        "meta_mean_motion_ddot": 0,
        "tle_line1": "1 34651U 97051KC  25340.92494074  .00013145  00000+0  49781-2 0  9998",
        "tle_line2": "2 34651  86.2838 143.0500 0141931 222.4049 136.6106 14.25664536858131"
      },
      "geometry": {
        "type": "Point",
        "coordinates": [
          142.81033660687643,
          1.3656348272449812
        ]
      }
    },
    {
      "type": "Feature",
      "properties": {
        "norad_id": 34652,
        "name": "IRIDIUM 33 DEB",
        "group": "iridium-33-debris",
        "lat": 65.43005916221477,
        "lon": 154.1785989412093,
        "alt_km": 697.836348724446,
        "timestamp": "2025-12-07T16:44:04.297541+00:00",
        "meta_object_name": "IRIDIUM 33 DEB",
        "meta_object_id": "1997-051KD",
        "meta_epoch": "2025-12-06T11:20:22.742016",
        "meta_mean_motion": 14.61968403,
        "meta_eccentricity": 0.00265973,
        "meta_inclination": 86.3308,
        "meta_ra_of_asc_node": 342.792,
        "meta_arg_of_pericenter": 320.8113,
        "meta_mean_anomaly": 191.3091,
        "meta_ephemeris_type": 0,
        "meta_classification_type": "U",
        "meta_norad_cat_id": 34652,
        "meta_element_set_no": 999,
        "meta_rev_at_epoch": 88392,
        "meta_bstar": 0.0017876249,
        "meta_mean_motion_dot": 9.024e-05,
        "meta_mean_motion_ddot": 0,
        "tle_line1": "1 34652U 97051KD  25340.47248544  .00009024  00000+0  17876-2 0  9999",
        "tle_line2": "2 34652  86.3308 342.7920 0026597 320.8113 191.3091 14.61968403883920"
      },
      "geometry": {
        "type": "Point",
        "coordinates": [
          154.1785989412093,
          65.43005916221477
        ]
      }
    },
    {
      "type": "Feature",
      "properties": {
        "norad_id": 34690,
        "name": "IRIDIUM 33 DEB",
        "group": "iridium-33-debris",
        "lat": 76.59551588435781,
        "lon": -156.2291033155436,
        "alt_km": 697.7661933989048,
        "timestamp": "2025-12-07T16:44:04.297552+00:00",
        "meta_object_name": "IRIDIUM 33 DEB",
        "meta_object_id": "1997-051KM",
        "meta_epoch": "2025-12-06T22:39:51.154848",
        "meta_mean_motion": 14.55062942,
        "meta_eccentricity": 0.00114779,
        "meta_inclination": 86.3784,
        "meta_ra_of_asc_node": 39.5101,
        "meta_arg_of_pericenter": 46.8175,
        "meta_mean_anomaly": 74.4761,
        "meta_ephemeris_type": 0,
        "meta_classification_type": "U",
        "meta_norad_cat_id": 34690,
        "meta_element_set_no": 999,
        "meta_rev_at_epoch": 88010,
        "meta_bstar": 0.0008002396,
        "meta_mean_motion_dot": 3.473e-05,
        "meta_mean_motion_ddot": 0,
        "tle_line1": "1 34690U 97051KM  25340.94434207  .00003473  00000+0  80024-3 0  9994",
        "tle_line2": "2 34690  86.3784  39.5101 0011477  46.8175  74.4761 14.55062942880104"
      },
      "geometry": {
        "type": "Point",
        "coordinates": [
          -156.2291033155436,
          76.59551588435781
        ]
      }
    },
    {
      "type": "Feature",
      "properties": {
        "norad_id": 34693,
        "name": "IRIDIUM 33 DEB",
        "group": "iridium-33-debris",
        "lat": -72.48684076037067,
        "lon": -65.48833883195495,
        "alt_km": 501.5954637312443,
        "timestamp": "2025-12-07T16:44:04.297562+00:00",
        "meta_object_name": "IRIDIUM 33 DEB",
        "meta_object_id": "1997-051KQ",
        "meta_epoch": "2025-12-06T22:24:05.873184",
        "meta_mean_motion": 15.25940657,
        "meta_eccentricity": 0.00151715,
        "meta_inclination": 86.3058,
        "meta_ra_of_asc_node": 306.7051,
        "meta_arg_of_pericenter": 62.2889,
        "meta_mean_anomaly": 351.3098,
        "meta_ephemeris_type": 0,
        "meta_classification_type": "U",
        "meta_norad_cat_id": 34693,
        "meta_element_set_no": 999,
        "meta_rev_at_epoch": 88826,
        "meta_bstar": 0.0063256345,
        "meta_mean_motion_dot": 0.00166162,
        "meta_mean_motion_ddot": 0,
        "tle_line1": "1 34693U 97051KQ  25340.93340131  .00166162  00000+0  63256-2 0  9990",
        "tle_line2": "2 34693  86.3058 306.7051 0015171  62.2889 351.3098 15.25940657888264"
      },
      "geometry": {
        "type": "Point",
        "coordinates": [
          -65.48833883195495,
          -72.48684076037067
        ]
      }
    },
    {
      "type": "Feature",
      "properties": {
        "norad_id": 34696,
        "name": "IRIDIUM 33 DEB",
        "group": "iridium-33-debris",
        "lat": 62.40623661278178,
        "lon": 37.20140913916786,
        "alt_km": 699.7187316093323,
        "timestamp": "2025-12-07T16:44:04.297573+00:00",
        "meta_object_name": "IRIDIUM 33 DEB",
        "meta_object_id": "1997-051KT",
        "meta_epoch": "2025-12-06T02:52:04.787040",
        "meta_mean_motion": 14.64542505,
        "meta_eccentricity": 0.00743833,
        "meta_inclination": 86.1861,
        "meta_ra_of_asc_node": 30.6015,
        "meta_arg_of_pericenter": 190.2321,
        "meta_mean_anomaly": 199.6062,
        "meta_ephemeris_type": 0,
        "meta_classification_type": "U",
        "meta_norad_cat_id": 34696,
        "meta_element_set_no": 999,
        "meta_rev_at_epoch": 86576,
        "meta_bstar": 0.0082420437,
        "meta_mean_motion_dot": 0.00045777,
        "meta_mean_motion_ddot": 0,
        "tle_line1": "1 34696U 97051KT  25340.11949985  .00045777  00000+0  82420-2 0  9997",
        "tle_line2": "2 34696  86.1861  30.6015 0074383 190.2321 199.6062 14.64542505865769"
      },
      "geometry": {
        "type": "Point",
        "coordinates": [
          37.20140913916786,
          62.40623661278178
        ]
      }
    }
  ]
}